[{"CCSDS_OMM_VERS":"2.0","COMMENT":"GENERATED VIA SPACE-TRACK.ORG API","CREATION_DATE":"2004-08-15T23:36:23","ORIGINATOR":"18 SPCS","OBJECT_NAME":"TITAN 3C TRANSTAGE DEB","OBJECT_ID":"1965-082KL","CENTER_NAME":"EARTH","REF_FRAME":"TEME","TIME_SYSTEM":"UTC","MEAN_ELEMENT_THEORY":"SGP4","EPOCH":"1968-09-07T19:46:47.454239","MEAN_MOTION":"15.26353523","ECCENTRICITY":"0.00311210","INCLINATION":"31.7468","RA_OF_ASC_NODE":"69.3450","ARG_OF_PERICENTER":"76.0223","MEAN_ANOMALY":"284.3829","EPHEMERIS_TYPE":"0","CLASSIFICATION_TYPE":"U","NORAD_CAT_ID":"2574","ELEMENT_SET_NO":"999","REV_AT_EPOCH":"14457","BSTAR":"0.00000000000000","MEAN_MOTION_DOT":"0.00117187","MEAN_MOTION_DDOT":"0.0000000000000","SEMIMAJOR_AXIS":"6864.865","PERIOD":"94.342","APOAPSIS":"508.094","PERIAPSIS":"465.366","OBJECT_TYPE":"DEBRIS","RCS_SIZE":null,"COUNTRY_CODE":null,"LAUNCH_DATE":null,"SITE":null,"DECAY_DATE":"1968-12-03","FILE":"33926","GP_ID":"8780389","TLE_LINE0":"0 TITAN 3C TRANSTAGE DEB","TLE_LINE1":"1 02574U 65082 KL 68251.82416035  .00117187 +00000-0 +00000-0 0  9995","TLE_LINE2":"2 02574 031.7468 069.3450 0031121 076.0223 284.3829 15.26353523144576"},{"CCSDS_OMM_VERS":"2.0","COMMENT":"GENERATED VIA SPACE-TRACK.ORG API","CREATION_DATE":"2004-08-15T23:36:23","ORIGINATOR":"18 SPCS","OBJECT_NAME":"TITAN 3C TRANSTAGE DEB","OBJECT_ID":"1965-082EE","CENTER_NAME":"EARTH","REF_FRAME":"TEME","TIME_SYSTEM":"UTC","MEAN_ELEMENT_THEORY":"SGP4","EPOCH":"1968-09-09T11:51:52.876799","MEAN_MOTION":"15.33234227","ECCENTRICITY":"0.00281750","INCLINATION":"32.5616","RA_OF_ASC_NODE":"300.7843","ARG_OF_PERICENTER":"95.9898","MEAN_ANOMALY":"264.3993","EPHEMERIS_TYPE":"0","CLASSIFICATION_TYPE":"U","NORAD_CAT_ID":"1862","ELEMENT_SET_NO":"999","REV_AT_EPOCH":"14750","BSTAR":"0.00000000000000","MEAN_MOTION_DOT":"0.05329114","MEAN_MOTION_DDOT":"0.0000000000000","SEMIMAJOR_AXIS":"6844.311","PERIOD":"93.919","APOAPSIS":"485.460","PERIAPSIS":"446.892","OBJECT_TYPE":"DEBRIS","RCS_SIZE":null,"COUNTRY_CODE":null,"LAUNCH_DATE":null,"SITE":null,"DECAY_DATE":"1968-09-11","FILE":"33926","GP_ID":"8775273","TLE_LINE0":"0 TITAN 3C TRANSTAGE DEB","TLE_LINE1":"1 01862U 65082 EE 68253.49436200  .05329114 +00000-0 +00000-0 0  9995","TLE_LINE2":"2 01862 032.5616 300.7843 0028175 095.9898 264.3993 15.33234227147503"},{"CCSDS_OMM_VERS":"2.0","COMMENT":"GENERATED VIA SPACE-TRACK.ORG API","CREATION_DATE":"2004-08-15T23:36:23","ORIGINATOR":"18 SPCS","OBJECT_NAME":"SL-8 DEB","OBJECT_ID":"1965-020CP","CENTER_NAME":"EARTH","REF_FRAME":"TEME","TIME_SYSTEM":"UTC","MEAN_ELEMENT_THEORY":"SGP4","EPOCH":"1968-09-10T21:11:24.258623","MEAN_MOTION":"15.95882204","ECCENTRICITY":"0.00860610","INCLINATION":"55.9641","RA_OF_ASC_NODE":"45.5530","ARG_OF_PERICENTER":"278.9361","MEAN_ANOMALY":"80.1978","EPHEMERIS_TYPE":"0","CLASSIFICATION_TYPE":"U","NORAD_CAT_ID":"1543","ELEMENT_SET_NO":"999","REV_AT_EPOCH":"18000","BSTAR":"0.00000000000000","MEAN_MOTION_DOT":"0.01252007","MEAN_MOTION_DDOT":"0.0000000000000","SEMIMAJOR_AXIS":"6663.998","PERIOD":"90.232","APOAPSIS":"343.214","PERIAPSIS":"228.512","OBJECT_TYPE":"DEBRIS","RCS_SIZE":null,"COUNTRY_CODE":null,"LAUNCH_DATE":null,"SITE":null,"DECAY_DATE":"1968-09-19","FILE":"33926","GP_ID":"8770739","TLE_LINE0":"0 SL-8 DEB","TLE_LINE1":"1 01543U 65020 CP 68254.88291966  .01252007 +00000-0 +00000-0 0  9997","TLE_LINE2":"2 01543 055.9641 045.5530 0086061 278.9361 080.1978 15.95882204180000"},{"CCSDS_OMM_VERS":"2.0","COMMENT":"GENERATED VIA SPACE-TRACK.ORG API","CREATION_DATE":"2004-08-15T23:36:23","ORIGINATOR":"18 SPCS","OBJECT_NAME":"DIAMANT DEB","OBJECT_ID":"1967-014D","CENTER_NAME":"EARTH","REF_FRAME":"TEME","TIME_SYSTEM":"UTC","MEAN_ELEMENT_THEORY":"SGP4","EPOCH":"1968-09-11T05:37:13.004255","MEAN_MOTION":"15.42115188","ECCENTRICITY":"0.01340790","INCLINATION":"39.5585","RA_OF_ASC_NODE":"325.8852","ARG_OF_PERICENTER":"26.5507","MEAN_ANOMALY":"334.2009","EPHEMERIS_TYPE":"0","CLASSIFICATION_TYPE":"U","NORAD_CAT_ID":"2681","ELEMENT_SET_NO":"999","REV_AT_EPOCH":"7917","BSTAR":"0.00000000000000","MEAN_MOTION_DOT":"0.02383504","MEAN_MOTION_DDOT":"0.0000000000000","SEMIMAJOR_AXIS":"6818.009","PERIOD":"93.378","APOAPSIS":"531.289","PERIAPSIS":"348.458","OBJECT_TYPE":"DEBRIS","RCS_SIZE":null,"COUNTRY_CODE":null,"LAUNCH_DATE":null,"SITE":null,"DECAY_DATE":"1968-09-16","FILE":"33926","GP_ID":"8780864","TLE_LINE0":"0 DIAMANT DEB","TLE_LINE1":"1 02681U 67014  D 68255.23417829  .02383504 +00000-0 +00000-0 0  9992","TLE_LINE2":"2 02681 039.5585 325.8852 0134079 026.5507 334.2009 15.42115188079177"},{"CCSDS_OMM_VERS":"2.0","COMMENT":"GENERATED VIA SPACE-TRACK.ORG API","CREATION_DATE":"2004-08-15T23:36:23","ORIGINATOR":"18 SPCS","OBJECT_NAME":"SCOUT X-4 DEB","OBJECT_ID":"1964-051E","CENTER_NAME":"EARTH","REF_FRAME":"TEME","TIME_SYSTEM":"UTC","MEAN_ELEMENT_THEORY":"SGP4","EPOCH":"1968-09-13T16:06:24.223679","MEAN_MOTION":"15.61653534","ECCENTRICITY":"0.00334550","INCLINATION":"79.7350","RA_OF_ASC_NODE":"13.2906","ARG_OF_PERICENTER":"340.7922","MEAN_ANOMALY":"19.2071","EPHEMERIS_TYPE":"0","CLASSIFICATION_TYPE":"U","NORAD_CAT_ID":"875","ELEMENT_SET_NO":"999","REV_AT_EPOCH":"20854","BSTAR":"0.00000000000000","MEAN_MOTION_DOT":"0.10562658","MEAN_MOTION_DDOT":"0.0000000000000","SEMIMAJOR_AXIS":"6761.021","PERIOD":"92.209","APOAPSIS":"405.505","PERIAPSIS":"360.267","OBJECT_TYPE":"DEBRIS","RCS_SIZE":null,"COUNTRY_CODE":"US","LAUNCH_DATE":"1964-08-25","SITE":"AFWTR","DECAY_DATE":"1968-09-16","FILE":"33926","GP_ID":"8766476","TLE_LINE0":"0 SCOUT X-4 DEB","TLE_LINE1":"1 00875U 64051  E 68257.67111370  .10562658 +00000-0 +00000-0 0  9993","TLE_LINE2":"2 00875 079.7350 013.2906 0033455 340.7922 019.2071 15.61653534208549"},{"CCSDS_OMM_VERS":"2.0","COMMENT":"GENERATED VIA SPACE-TRACK.ORG API","CREATION_DATE":"2004-08-15T23:36:23","ORIGINATOR":"18 SPCS","OBJECT_NAME":"SL-8 DEB","OBJECT_ID":"1965-112M","CENTER_NAME":"EARTH","REF_FRAME":"TEME","TIME_SYSTEM":"UTC","MEAN_ELEMENT_THEORY":"SGP4","EPOCH":"1968-10-10T03:26:05.555904","MEAN_MOTION":"15.82091000","ECCENTRICITY":"0.00036010","INCLINATION":"56.2800","RA_OF_ASC_NODE":"129.8580","ARG_OF_PERICENTER":"184.7433","MEAN_ANOMALY":"175.3418","EPHEMERIS_TYPE":"0","CLASSIFICATION_TYPE":"U","NORAD_CAT_ID":"1907","ELEMENT_SET_NO":"999","REV_AT_EPOCH":"15198","BSTAR":"0.00000000000000","MEAN_MOTION_DOT":"0.01520237","MEAN_MOTION_DDOT":"0.0000000000000","SEMIMAJOR_AXIS":"6702.669","PERIOD":"91.018","APOAPSIS":"326.948","PERIAPSIS":"322.120","OBJECT_TYPE":"DEBRIS","RCS_SIZE":null,"COUNTRY_CODE":null,"LAUNCH_DATE":null,"SITE":null,"DECAY_DATE":"1968-10-16","FILE":"33926","GP_ID":"8775825","TLE_LINE0":"0 SL-8 DEB","TLE_LINE1":"1 01907U 65112  M 68284.14311986  .01520237 +00000-0 +00000-0 0  9993","TLE_LINE2":"2 01907 056.2800 129.8580 0003601 184.7433 175.3418 15.82091000151982"},{"CCSDS_OMM_VERS":"2.0","COMMENT":"GENERATED VIA SPACE-TRACK.ORG API","CREATION_DATE":"2004-08-15T23:36:23","ORIGINATOR":"18 SPCS","OBJECT_NAME":"SL-4 DEB","OBJECT_ID":"1968-080C","CENTER_NAME":"EARTH","REF_FRAME":"TEME","TIME_SYSTEM":"UTC","MEAN_ELEMENT_THEORY":"SGP4","EPOCH":"1968-10-11T22:52:46.757279","MEAN_MOTION":"16.39491245","ECCENTRICITY":"0.00213840","INCLINATION":"71.2943","RA_OF_ASC_NODE":"108.9874","ARG_OF_PERICENTER":"345.6751","MEAN_ANOMALY":"14.3889","EPHEMERIS_TYPE":"0","CLASSIFICATION_TYPE":"U","NORAD_CAT_ID":"3452","ELEMENT_SET_NO":"999","REV_AT_EPOCH":"301","BSTAR":"0.00000000000000","MEAN_MOTION_DOT":"0.03161579","MEAN_MOTION_DDOT":"0.0000000000000","SEMIMAJOR_AXIS":"6545.297","PERIOD":"87.832","APOAPSIS":"181.158","PERIAPSIS":"153.165","OBJECT_TYPE":"DEBRIS","RCS_SIZE":null,"COUNTRY_CODE":null,"LAUNCH_DATE":null,"SITE":null,"DECAY_DATE":"1968-10-12","FILE":"33926","GP_ID":"8789597","TLE_LINE0":"0 SL-4 DEB","TLE_LINE1":"1 03452U 68080  C 68285.95331895  .03161579 +00000-0 +00000-0 0  9990","TLE_LINE2":"2 03452 071.2943 108.9874 0021384 345.6751 014.3889 16.39491245003019"},{"CCSDS_OMM_VERS":"2.0","COMMENT":"GENERATED VIA SPACE-TRACK.ORG API","CREATION_DATE":"2004-08-15T23:36:23","ORIGINATOR":"18 SPCS","OBJECT_NAME":"SL-8 DEB","OBJECT_ID":"1965-112L","CENTER_NAME":"EARTH","REF_FRAME":"TEME","TIME_SYSTEM":"UTC","MEAN_ELEMENT_THEORY":"SGP4","EPOCH":"1968-10-15T12:43:59.476800","MEAN_MOTION":"15.90959389","ECCENTRICITY":"0.00000000","INCLINATION":"56.1952","RA_OF_ASC_NODE":"94.1705","ARG_OF_PERICENTER":"265.0780","MEAN_ANOMALY":"95.1124","EPHEMERIS_TYPE":"0","CLASSIFICATION_TYPE":"U","NORAD_CAT_ID":"1906","ELEMENT_SET_NO":"999","REV_AT_EPOCH":"15293","BSTAR":"0.00000000000000","MEAN_MOTION_DOT":"0.02744230","MEAN_MOTION_DDOT":"0.0000000000000","SEMIMAJOR_AXIS":"6677.738","PERIOD":"90.511","APOAPSIS":"299.603","PERIAPSIS":"299.603","OBJECT_TYPE":"DEBRIS","RCS_SIZE":null,"COUNTRY_CODE":null,"LAUNCH_DATE":null,"SITE":null,"DECAY_DATE":"1968-10-19","FILE":"33926","GP_ID":"8775755","TLE_LINE0":"0 SL-8 DEB","TLE_LINE1":"1 01906U 65112  L 68289.53054950  .02744230 +00000-0 +00000-0 0  9997","TLE_LINE2":"2 01906 056.1952 094.1705 0000000 265.0780 095.1124 15.90959389152930"}]